CTC2_L_00032001-01
1 15099U 26462JW  26070.40842593  .00000000  00000+0  00000-0 0  9993
2 15099 100.0000   0.0000 0000000   0.0000   0.0000 15.69614517    13
CTC2_L_00032001-02
1 15100U 26692OL  26070.40842593  .00000000  00000+0  00000-0 0  9991
2 15100 100.0000   0.0000 0000000   0.0000  90.0000 15.69614517    15
CTC2_L_00032001-03
1 15101U 26776GD  26070.40842593  .00000000  00000+0  00000-0 0  9995
2 15101 100.0000   0.0000 0000000   0.0000 180.0000 15.69614517    16
CTC2_L_00032001-04
1 15102U 24915BY  26070.40842593  .00000000  00000+0  00000-0 0  9999
2 15102 100.0000   0.0000 0000000   0.0000 270.0000 15.69614517    17
CTC2_L_00032002-01
1 15103U 25143WG  26070.40842593  .00000000  00000+0  00000-0 0  9994
2 15103 100.0000  12.0000 0000000   0.0000  12.0000 15.69614517    15
CTC2_L_00032002-02
1 15104U 24353VG  26070.40842593  .00000000  00000+0  00000-0 0  9997
2 15104 100.0000  12.0000 0000000   0.0000 102.0000 15.69614517    16
CTC2_L_00032002-03
1 15105U 25426TW  26070.40842593  .00000000  00000+0  00000-0 0  9990
2 15105 100.0000  12.0000 0000000   0.0000 192.0000 15.69614517    16
CTC2_L_00032002-04
1 15106U 23006GI  26070.40842593  .00000000  00000+0  00000-0 0  9993
2 15106 100.0000  12.0000 0000000   0.0000 282.0000 15.69614517    17
CTC2_L_00032003-01
1 15107U 26874RV  26070.40842593  .00000000  00000+0  00000-0 0  9990
2 15107 100.0000  24.0000 0000000   0.0000  24.0000 15.69614517    15
CTC2_L_00032003-02
1 15108U 24619WL  26070.40842593  .00000000  00000+0  00000-0 0  9996
2 15108 100.0000  24.0000 0000000   0.0000 114.0000 15.69614517    16
CTC2_L_00032003-03
1 15109U 24661JC  26070.40842593  .00000000  00000+0  00000-0 0  9994
2 15109 100.0000  24.0000 0000000   0.0000 204.0000 15.69614517    17
CTC2_L_00032003-04
1 15110U 22401UP  26070.40842593  .00000000  00000+0  00000-0 0  9996
2 15110 100.0000  24.0000 0000000   0.0000 294.0000 15.69614517    18
CTC2_L_00032004-01
1 15111U 25709TX  26070.40842593  .00000000  00000+0  00000-0 0  9991
2 15111 100.0000  36.0000 0000000   0.0000  36.0000 15.69614517    16
CTC2_L_00032004-02
1 15112U 26608GA  26070.40842593  .00000000  00000+0  00000-0 0  9991
2 15112 100.0000  36.0000 0000000   0.0000 126.0000 15.69614517    17
CTC2_L_00032004-03
1 15113U 22192NM  26070.40842593  .00000000  00000+0  00000-0 0  9996
2 15113 100.0000  36.0000 0000000   0.0000 216.0000 15.69614517    18
CTC2_L_00032004-04
1 15114U 26843IW  26070.40842593  .00000000  00000+0  00000-0 0  9994
2 15114 100.0000  36.0000 0000000   0.0000 306.0000 15.69614517    19
CTC2_L_00032005-01
1 15115U 23891ZD  26070.40842593  .00000000  00000+0  00000-0 0  9995
2 15115 100.0000  48.0000 0000000   0.0000  48.0000 15.69614517    16
CTC2_L_00032005-02
1 15116U 26168RB  26070.40842593  .00000000  00000+0  00000-0 0  9996
2 15116 100.0000  48.0000 0000000   0.0000 138.0000 15.69614517    17
CTC2_L_00032005-03
1 15117U 24372LW  26070.40842593  .00000000  00000+0  00000-0 0  9992
2 15117 100.0000  48.0000 0000000   0.0000 228.0000 15.69614517    18
CTC2_L_00032005-04
1 15118U 26549AZ  26070.40842593  .00000000  00000+0  00000-0 0  9991
2 15118 100.0000  48.0000 0000000   0.0000 318.0000 15.69614517    19
CTC2_L_00032006-01
1 15119U 24150TV  26070.40842593  .00000000  00000+0  00000-0 0  9998
2 15119 100.0000  60.0000 0000000   0.0000  60.0000 15.69614517    18
CTC2_L_00032006-02
1 15120U 22087AK  26070.40842593  .00000000  00000+0  00000-0 0  9997
2 15120 100.0000  60.0000 0000000   0.0000 150.0000 15.69614517    10
CTC2_L_00032006-03
1 15121U 25355CI  26070.40842593  .00000000  00000+0  00000-0 0  9999
2 15121 100.0000  60.0000 0000000   0.0000 240.0000 15.69614517    11
CTC2_L_00032006-04
1 15122U 22722IV  26070.40842593  .00000000  00000+0  00000-0 0  9995
2 15122 100.0000  60.0000 0000000   0.0000 330.0000 15.69614517    12
CTC2_L_00032007-01
1 15123U 23998BP  26070.40842593  .00000000  00000+0  00000-0 0  9992
2 15123 100.0000  72.0000 0000000   0.0000  72.0000 15.69614517    19
CTC2_L_00032007-02
1 15124U 25617JY  26070.40842593  .00000000  00000+0  00000-0 0  9993
2 15124 100.0000  72.0000 0000000   0.0000 162.0000 15.69614517    10
CTC2_L_00032007-03
1 15125U 25741AG  26070.40842593  .00000000  00000+0  00000-0 0  9992
2 15125 100.0000  72.0000 0000000   0.0000 252.0000 15.69614517    11
CTC2_L_00032007-04
1 15126U 22565D   26070.40842593  .00000000  00000+0  00000-0 0  9994
2 15126 100.0000  72.0000 0000000   0.0000 342.0000 15.69614517    12
CTC2_L_00032008-01
1 15127U 24071FX  26070.40842593  .00000000  00000+0  00000-0 0  9999
2 15127 100.0000  84.0000 0000000   0.0000  84.0000 15.69614517    19
CTC2_L_00032008-02
1 15128U 26266PA  26070.40842593  .00000000  00000+0  00000-0 0  9998
2 15128 100.0000  84.0000 0000000   0.0000 174.0000 15.69614517    10
CTC2_L_00032008-03
1 15129U 22471ZR  26070.40842593  .00000000  00000+0  00000-0 0  9993
2 15129 100.0000  84.0000 0000000   0.0000 264.0000 15.69614517    11
CTC2_L_00032008-04
1 15130U 23370QL  26070.40842593  .00000000  00000+0  00000-0 0  9994
2 15130 100.0000  84.0000 0000000   0.0000 354.0000 15.69614517    13
CTC2_L_00032009-01
1 15131U 26508CS  26070.40842593  .00000000  00000+0  00000-0 0  9991
2 15131 100.0000  96.0000 0000000   0.0000  96.0000 15.69614517    10
CTC2_L_00032009-02
1 15132U 23733YA  26070.40842593  .00000000  00000+0  00000-0 0  9999
2 15132 100.0000  96.0000 0000000   0.0000 186.0000 15.69614517    11
CTC2_L_00032009-03
1 15133U 26324EE  26070.40842593  .00000000  00000+0  00000-0 0  9999
2 15133 100.0000  96.0000 0000000   0.0000 276.0000 15.69614517    12
CTC2_L_00032009-04
1 15134U 25124EJ  26070.40842593  .00000000  00000+0  00000-0 0  9997
2 15134 100.0000  96.0000 0000000   0.0000   6.0000 15.69614517    14
CTC2_L_00032010-01
1 15135U 26814MI  26070.40842593  .00000000  00000+0  00000-0 0  9995
2 15135 100.0000 108.0000 0000000   0.0000 108.0000 15.69614517    12
CTC2_L_00032010-02
1 15136U 25310NN  26070.40842593  .00000000  00000+0  00000-0 0  9996
2 15136 100.0000 108.0000 0000000   0.0000 198.0000 15.69614517    12
CTC2_L_00032010-03
1 15137U 26914AU  26070.40842593  .00000000  00000+0  00000-0 0  9998
2 15137 100.0000 108.0000 0000000   0.0000 288.0000 15.69614517    13
CTC2_L_00032010-04
1 15138U 25057LK  26070.40842593  .00000000  00000+0  00000-0 0  9996
2 15138 100.0000 108.0000 0000000   0.0000  18.0000 15.69614517    15
CTC2_L_00032011-01
1 15139U 24911BH  26070.40842593  .00000000  00000+0  00000-0 0  9995
2 15139 100.0000 120.0000 0000000   0.0000 120.0000 15.69614517    14
CTC2_L_00032011-02
1 15140U 23986AI  26070.40842593  .00000000  00000+0  00000-0 0  9998
2 15140 100.0000 120.0000 0000000   0.0000 210.0000 15.69614517    16
CTC2_L_00032011-03
1 15141U 26586AW  26070.40842593  .00000000  00000+0  00000-0 0  9998
2 15141 100.0000 120.0000 0000000   0.0000 300.0000 15.69614517    17
CTC2_L_00032011-04
1 15142U 22047JU  26070.40842593  .00000000  00000+0  00000-0 0  9997
2 15142 100.0000 120.0000 0000000   0.0000  30.0000 15.69614517    18
CTC2_L_00032012-01
1 15143U 26453RL  26070.40842593  .00000000  00000+0  00000-0 0  9993
2 15143 100.0000 132.0000 0000000   0.0000 132.0000 15.69614517    15
CTC2_L_00032012-02
1 15144U 25704KF  26070.40842593  .00000000  00000+0  00000-0 0  9992
2 15144 100.0000 132.0000 0000000   0.0000 222.0000 15.69614517    16
CTC2_L_00032012-03
1 15145U 24584WV  26070.40842593  .00000000  00000+0  00000-0 0  9998
2 15145 100.0000 132.0000 0000000   0.0000 312.0000 15.69614517    17
CTC2_L_00032012-04
1 15146U 23550D   26070.40842593  .00000000  00000+0  00000-0 0  9991
2 15146 100.0000 132.0000 0000000   0.0000  42.0000 15.69614517    18
CTC2_L_00032013-01
1 15147U 26674K   26070.40842593  .00000000  00000+0  00000-0 0  9992
2 15147 100.0000 144.0000 0000000   0.0000 144.0000 15.69614517    15
CTC2_L_00032013-02
1 15148U 23773PA  26070.40842593  .00000000  00000+0  00000-0 0  9990
2 15148 100.0000 144.0000 0000000   0.0000 234.0000 15.69614517    16
CTC2_L_00032013-03
1 15149U 26162VP  26070.40842593  .00000000  00000+0  00000-0 0  9996
2 15149 100.0000 144.0000 0000000   0.0000 324.0000 15.69614517    17
CTC2_L_00032013-04
1 15150U 23211CN  26070.40842593  .00000000  00000+0  00000-0 0  9990
2 15150 100.0000 144.0000 0000000   0.0000  54.0000 15.69614517    19
CTC2_L_00032014-01
1 15151U 25655AZ  26070.40842593  .00000000  00000+0  00000-0 0  9995
2 15151 100.0000 156.0000 0000000   0.0000 156.0000 15.69614517    16
CTC2_L_00032014-02
1 15152U 22563LY  26070.40842593  .00000000  00000+0  00000-0 0  9991
2 15152 100.0000 156.0000 0000000   0.0000 246.0000 15.69614517    17
CTC2_L_00032014-03
1 15153U 25069QE  26070.40842593  .00000000  00000+0  00000-0 0  9996
2 15153 100.0000 156.0000 0000000   0.0000 336.0000 15.69614517    18
CTC2_L_00032014-04
1 15154U 25821ZJ  26070.40842593  .00000000  00000+0  00000-0 0  9993
2 15154 100.0000 156.0000 0000000   0.0000  66.0000 15.69614517    19
CTC2_L_00032015-01
1 15155U 22896ID  26070.40842593  .00000000  00000+0  00000-0 0  9993
2 15155 100.0000 168.0000 0000000   0.0000 168.0000 15.69614517    16
CTC2_L_00032015-02
1 15156U 24608HL  26070.40842593  .00000000  00000+0  00000-0 0  9997
2 15156 100.0000 168.0000 0000000   0.0000 258.0000 15.69614517    17
CTC2_L_00032015-03
1 15157U 23780MH  26070.40842593  .00000000  00000+0  00000-0 0  9998
2 15157 100.0000 168.0000 0000000   0.0000 348.0000 15.69614517    18
CTC2_L_00032015-04
1 15158U 23951KH  26070.40842593  .00000000  00000+0  00000-0 0  9999
2 15158 100.0000 168.0000 0000000   0.0000  78.0000 15.69614517    19
CTC2_L_00032016-01
1 15159U 24070JW  26070.40842593  .00000000  00000+0  00000-0 0  9993
2 15159 100.0000 180.0000 0000000   0.0000 180.0000 15.69614517    18
CTC2_L_00032016-02
1 15160U 26027B   26070.40842593  .00000000  00000+0  00000-0 0  9999
2 15160 100.0000 180.0000 0000000   0.0000 270.0000 15.69614517    10
